STARLINK-37149          
1 68309U 26057R   26103.31538680  .00147240  00000+0  97097-3 0  9994
2 68309  97.2833 227.4473 0001116  78.3244 281.8147 15.75193349  3737
STARLINK-37148          
1 68310U 26057S   26103.25002315  .00074379  00000+0  49610-3 0  9990
2 68310  97.2844 227.4070 0001476  77.3107 324.4211 15.75148241  4828
STARLINK-37140          
1 68311U 26057T   26102.85727470  .00207103  00000+0  10516-2 0  9997
2 68311  97.2851 227.0016 0001250  60.5994 299.5399 15.80916984  3664
STARLINK-36854          
1 68312U 26057U   26103.29887797  .00408226  00000+0  20178-2 0  9990
2 68312  97.2837 227.4719 0001151 130.9062 229.2306 15.80988978  3739
STARLINK-36815          
1 68313U 26057V   26103.29812691  .00408765  00000+0  20205-2 0  9991
2 68313  97.2846 227.4732 0001335 143.4636 216.6724 15.80987245  3735
STARLINK-37155          
1 68314U 26057W   26103.29662387  .00230276  00000+0  11661-2 0  9993
2 68314  97.2841 227.4755 0000894  80.9765 279.1604 15.80917222  3732
STARLINK-37150          
1 68315U 26057X   26103.25002315  .00064363  00000+0  42978-3 0  9997
2 68315  97.2846 227.4033 0000970  82.6962 309.0356 15.75155936  4828
STARLINK-37154          
1 68316U 26057Y   26103.25002315  .00063719  00000+0  42523-3 0  9998
2 68316  97.2846 227.4238 0001328  83.5577 356.1587 15.75171288  4722
STARLINK-37139          
1 68317U 26057Z   26103.29588868  .00378783  00000+0  18858-2 0  9998
2 68317  97.2850 227.4755 0001230 147.5462 212.5882 15.80907195  3731
STARLINK-37113          
1 68318U 26057AA  26103.25002315  .00040979  00000+0  27446-3 0  9990
2 68318  97.2844 227.4182 0001614 112.2234 315.4957 15.75175421  4821
PROGRESS-MS 33          
1 68319U 26058A   26103.16688155  .00004867  00000+0  96801-4 0  9992
2 68319  51.6321 261.8843 0006462 306.5385  53.5008 15.48891757  3163
STARLINK-36987          
1 68321U 26059A   26103.27396516  .00184554  00000+0  91548-3 0  9999
2 68321  53.1579 189.5686 0000979  83.3638 276.7496 15.80949923  3443
STARLINK-37088          
1 68322U 26059B   26103.20926129  .00314942  00000+0  15369-2 0  9994
2 68322  53.1580 189.8751 0002614  70.8921 289.2385 15.80940557  3435
STARLINK-36983          
1 68323U 26059C   26103.25002315 -.01881656  00000+0 -15011-1 0  9999
2 68323  53.1595 189.7168 0001224  88.9537 117.5159 15.73787307  4596
STARLINK-37164          
1 68324U 26059D   26103.27255571 -.00763747  00000+0 -48115-2 0  9997
2 68324  53.1582 189.5588 0002297 183.1935 176.9073 15.78000844  4579
STARLINK-36309          
1 68325U 26059E   26103.27097026  .00028697  00000+0  14858-3 0  9991
2 68325  53.1577 189.5485 0000584  85.7050 274.4040 15.80853366  3443
