[{"OBJECT_NAME":"STARLINK-37149","OBJECT_ID":"2026-057R","EPOCH":"2026-04-13T07:34:09.419520","MEAN_MOTION":15.75193349,"ECCENTRICITY":0.00011168,"INCLINATION":97.2833,"RA_OF_ASC_NODE":227.4473,"ARG_OF_PERICENTER":78.3244,"MEAN_ANOMALY":281.8147,"EPHEMERIS_TYPE":0,"CLASSIFICATION_TYPE":"U","NORAD_CAT_ID":68309,"ELEMENT_SET_NO":999,"REV_AT_EPOCH":373,"BSTAR":0.00097096898,"MEAN_MOTION_DOT":0.0014724,"MEAN_MOTION_DDOT":0},{"OBJECT_NAME":"STARLINK-37148","OBJECT_ID":"2026-057S","EPOCH":"2026-04-13T06:00:02.000160","MEAN_MOTION":15.75148241,"ECCENTRICITY":0.00014769,"INCLINATION":97.2844,"RA_OF_ASC_NODE":227.407,"ARG_OF_PERICENTER":77.3107,"MEAN_ANOMALY":324.4211,"EPHEMERIS_TYPE":0,"CLASSIFICATION_TYPE":"U","NORAD_CAT_ID":68310,"ELEMENT_SET_NO":999,"REV_AT_EPOCH":482,"BSTAR":0.00049609807,"MEAN_MOTION_DOT":0.00074379,"MEAN_MOTION_DDOT":0},{"OBJECT_NAME":"STARLINK-37140","OBJECT_ID":"2026-057T","EPOCH":"2026-04-12T20:34:28.534080","MEAN_MOTION":15.80916984,"ECCENTRICITY":0.00012509,"INCLINATION":97.2851,"RA_OF_ASC_NODE":227.0016,"ARG_OF_PERICENTER":60.5994,"MEAN_ANOMALY":299.5399,"EPHEMERIS_TYPE":0,"CLASSIFICATION_TYPE":"U","NORAD_CAT_ID":68311,"ELEMENT_SET_NO":999,"REV_AT_EPOCH":366,"BSTAR":0.0010516377,"MEAN_MOTION_DOT":0.00207103,"MEAN_MOTION_DDOT":0},{"OBJECT_NAME":"STARLINK-36854","OBJECT_ID":"2026-057U","EPOCH":"2026-04-13T07:10:23.056608","MEAN_MOTION":15.80988978,"ECCENTRICITY":0.0001151,"INCLINATION":97.2837,"RA_OF_ASC_NODE":227.4719,"ARG_OF_PERICENTER":130.9062,"MEAN_ANOMALY":229.2306,"EPHEMERIS_TYPE":0,"CLASSIFICATION_TYPE":"U","NORAD_CAT_ID":68312,"ELEMENT_SET_NO":999,"REV_AT_EPOCH":373,"BSTAR":0.002017786,"MEAN_MOTION_DOT":0.00408226,"MEAN_MOTION_DDOT":0},{"OBJECT_NAME":"STARLINK-36815","OBJECT_ID":"2026-057V","EPOCH":"2026-04-13T07:09:18.165024","MEAN_MOTION":15.80987245,"ECCENTRICITY":0.0001335,"INCLINATION":97.2846,"RA_OF_ASC_NODE":227.4732,"ARG_OF_PERICENTER":143.4636,"MEAN_ANOMALY":216.6724,"EPHEMERIS_TYPE":0,"CLASSIFICATION_TYPE":"U","NORAD_CAT_ID":68313,"ELEMENT_SET_NO":999,"REV_AT_EPOCH":373,"BSTAR":0.0020205074,"MEAN_MOTION_DOT":0.00408765,"MEAN_MOTION_DDOT":0},{"OBJECT_NAME":"STARLINK-37155","OBJECT_ID":"2026-057W","EPOCH":"2026-04-13T07:07:08.302368","MEAN_MOTION":15.80917222,"ECCENTRICITY":8.949e-5,"INCLINATION":97.2841,"RA_OF_ASC_NODE":227.4755,"ARG_OF_PERICENTER":80.9765,"MEAN_ANOMALY":279.1604,"EPHEMERIS_TYPE":0,"CLASSIFICATION_TYPE":"U","NORAD_CAT_ID":68314,"ELEMENT_SET_NO":999,"REV_AT_EPOCH":373,"BSTAR":0.0011660828,"MEAN_MOTION_DOT":0.00230276,"MEAN_MOTION_DDOT":0},{"OBJECT_NAME":"STARLINK-37150","OBJECT_ID":"2026-057X","EPOCH":"2026-04-13T06:00:02.000160","MEAN_MOTION":15.75155936,"ECCENTRICITY":9.7e-5,"INCLINATION":97.2846,"RA_OF_ASC_NODE":227.4033,"ARG_OF_PERICENTER":82.6962,"MEAN_ANOMALY":309.0356,"EPHEMERIS_TYPE":0,"CLASSIFICATION_TYPE":"U","NORAD_CAT_ID":68315,"ELEMENT_SET_NO":999,"REV_AT_EPOCH":482,"BSTAR":0.0004297815,"MEAN_MOTION_DOT":0.00064363,"MEAN_MOTION_DDOT":0},{"OBJECT_NAME":"STARLINK-37154","OBJECT_ID":"2026-057Y","EPOCH":"2026-04-13T06:00:02.000160","MEAN_MOTION":15.75171288,"ECCENTRICITY":0.00013287,"INCLINATION":97.2846,"RA_OF_ASC_NODE":227.4238,"ARG_OF_PERICENTER":83.5577,"MEAN_ANOMALY":356.1587,"EPHEMERIS_TYPE":0,"CLASSIFICATION_TYPE":"U","NORAD_CAT_ID":68316,"ELEMENT_SET_NO":999,"REV_AT_EPOCH":472,"BSTAR":0.0004252298,"MEAN_MOTION_DOT":0.00063719,"MEAN_MOTION_DDOT":0},{"OBJECT_NAME":"STARLINK-37139","OBJECT_ID":"2026-057Z","EPOCH":"2026-04-13T07:06:04.781952","MEAN_MOTION":15.80907195,"ECCENTRICITY":0.00012309,"INCLINATION":97.285,"RA_OF_ASC_NODE":227.4755,"ARG_OF_PERICENTER":147.5462,"MEAN_ANOMALY":212.5882,"EPHEMERIS_TYPE":0,"CLASSIFICATION_TYPE":"U","NORAD_CAT_ID":68317,"ELEMENT_SET_NO":999,"REV_AT_EPOCH":373,"BSTAR":0.0018857535,"MEAN_MOTION_DOT":0.00378783,"MEAN_MOTION_DDOT":0},{"OBJECT_NAME":"STARLINK-37113","OBJECT_ID":"2026-057AA","EPOCH":"2026-04-13T06:00:02.000160","MEAN_MOTION":15.75175421,"ECCENTRICITY":0.00016147,"INCLINATION":97.2844,"RA_OF_ASC_NODE":227.4182,"ARG_OF_PERICENTER":112.2234,"MEAN_ANOMALY":315.4957,"EPHEMERIS_TYPE":0,"CLASSIFICATION_TYPE":"U","NORAD_CAT_ID":68318,"ELEMENT_SET_NO":999,"REV_AT_EPOCH":482,"BSTAR":0.00027445971,"MEAN_MOTION_DOT":0.00040979,"MEAN_MOTION_DDOT":0},{"OBJECT_NAME":"PROGRESS-MS 33","OBJECT_ID":"2026-058A","EPOCH":"2026-04-13T04:00:18.565920","MEAN_MOTION":15.48891757,"ECCENTRICITY":0.00064626,"INCLINATION":51.6321,"RA_OF_ASC_NODE":261.8843,"ARG_OF_PERICENTER":306.5385,"MEAN_ANOMALY":53.5008,"EPHEMERIS_TYPE":0,"CLASSIFICATION_TYPE":"U","NORAD_CAT_ID":68319,"ELEMENT_SET_NO":999,"REV_AT_EPOCH":316,"BSTAR":9.6800567e-5,"MEAN_MOTION_DOT":4.867e-5,"MEAN_MOTION_DDOT":0},{"OBJECT_NAME":"STARLINK-36987","OBJECT_ID":"2026-059A","EPOCH":"2026-04-13T06:34:30.589824","MEAN_MOTION":15.80949923,"ECCENTRICITY":9.792e-5,"INCLINATION":53.1579,"RA_OF_ASC_NODE":189.5686,"ARG_OF_PERICENTER":83.3638,"MEAN_ANOMALY":276.7496,"EPHEMERIS_TYPE":0,"CLASSIFICATION_TYPE":"U","NORAD_CAT_ID":68321,"ELEMENT_SET_NO":999,"REV_AT_EPOCH":344,"BSTAR":0.00091548204,"MEAN_MOTION_DOT":0.00184554,"MEAN_MOTION_DDOT":0},{"OBJECT_NAME":"STARLINK-37088","OBJECT_ID":"2026-059B","EPOCH":"2026-04-13T05:01:20.175456","MEAN_MOTION":15.80940557,"ECCENTRICITY":0.00026141,"INCLINATION":53.158,"RA_OF_ASC_NODE":189.8751,"ARG_OF_PERICENTER":70.8921,"MEAN_ANOMALY":289.2385,"EPHEMERIS_TYPE":0,"CLASSIFICATION_TYPE":"U","NORAD_CAT_ID":68322,"ELEMENT_SET_NO":999,"REV_AT_EPOCH":343,"BSTAR":0.0015368704,"MEAN_MOTION_DOT":0.00314942,"MEAN_MOTION_DDOT":0},{"OBJECT_NAME":"STARLINK-36983","OBJECT_ID":"2026-059C","EPOCH":"2026-04-13T06:00:02.000160","MEAN_MOTION":15.73787307,"ECCENTRICITY":0.0001224,"INCLINATION":53.1595,"RA_OF_ASC_NODE":189.7168,"ARG_OF_PERICENTER":88.9537,"MEAN_ANOMALY":117.5159,"EPHEMERIS_TYPE":0,"CLASSIFICATION_TYPE":"U","NORAD_CAT_ID":68323,"ELEMENT_SET_NO":999,"REV_AT_EPOCH":459,"BSTAR":-0.01501145,"MEAN_MOTION_DOT":-0.01881656,"MEAN_MOTION_DDOT":0},{"OBJECT_NAME":"STARLINK-37164","OBJECT_ID":"2026-059D","EPOCH":"2026-04-13T06:32:28.813344","MEAN_MOTION":15.78000844,"ECCENTRICITY":0.00022973,"INCLINATION":53.1582,"RA_OF_ASC_NODE":189.5588,"ARG_OF_PERICENTER":183.1935,"MEAN_ANOMALY":176.9073,"EPHEMERIS_TYPE":0,"CLASSIFICATION_TYPE":"U","NORAD_CAT_ID":68324,"ELEMENT_SET_NO":999,"REV_AT_EPOCH":457,"BSTAR":-0.0048114585,"MEAN_MOTION_DOT":-0.00763747,"MEAN_MOTION_DDOT":0},{"OBJECT_NAME":"STARLINK-36309","OBJECT_ID":"2026-059E","EPOCH":"2026-04-13T06:30:11.830464","MEAN_MOTION":15.80853366,"ECCENTRICITY":5.84e-5,"INCLINATION":53.1577,"RA_OF_ASC_NODE":189.5485,"ARG_OF_PERICENTER":85.705,"MEAN_ANOMALY":274.404,"EPHEMERIS_TYPE":0,"CLASSIFICATION_TYPE":"U","NORAD_CAT_ID":68325,"ELEMENT_SET_NO":999,"REV_AT_EPOCH":344,"BSTAR":0.0001485778,"MEAN_MOTION_DOT":0.00028697,"MEAN_MOTION_DDOT":0}]
